RAMSAT                  
1 48850U 98067SL  21212.05768050  .00007607  00000-0  14003-3 0  9995
2 48850  51.6419 125.4125 0003533 308.7835  51.2839 15.50223727  7279
SOAR                    
1 48851U 98067SM  21211.78458081  .00021630  00000-0  36897-3 0  9992
2 48851  51.6401 126.5869 0002701 299.5484  60.5236 15.51272686  7274
BD-28                   
1 48867U 98067SN  21211.34895740  .00008383  00000-0  15272-3 0  9992
2 48867  51.6421 128.9300 0002650 350.3870   9.7068 15.50369753  5915
MIR-SAT 1               
1 48868U 98067SP  21211.28741763  .00015491  00000-0  27427-3 0  9994
2 48868  51.6419 129.2685 0001829 311.5349  48.5483 15.50473954  5933
